{
    "links": {
        "self": "http://www.neowsapp.com/rest/v1/neo/3250194?api_key=iIulBulltgU6a56xZRHN4H3l9WmuAYTsLGpBGhQ2"
    },
    "id": "3250194",
    "neo_reference_id": "3250194",
    "name": "(2004 QJ13)",
    "designation": "2004 QJ13",
    "nasa_jpl_url": "http://ssd.jpl.nasa.gov/sbdb.cgi?sstr=3250194",
    "absolute_magnitude_h": 25.3,
    "estimated_diameter": {
        "kilometers": {
            "estimated_diameter_min": 0.0231502122,
            "estimated_diameter_max": 0.0517654482
        },
        "meters": {
            "estimated_diameter_min": 23.150212221,
            "estimated_diameter_max": 51.7654482198
        },
        "miles": {
            "estimated_diameter_min": 0.0143848705,
            "estimated_diameter_max": 0.0321655483
        },
        "feet": {
            "estimated_diameter_min": 75.9521422633,
            "estimated_diameter_max": 169.8341531374
        }
    },
    "is_potentially_hazardous_asteroid": false,
    "close_approach_data": [
        {
            "close_approach_date": "2004-08-22",
            "close_approach_date_full": "2004-Aug-22 09:39",
            "epoch_date_close_approach": 1093167540000,
            "relative_velocity": {
                "kilometers_per_second": "6.1372464898",
                "kilometers_per_hour": "22094.0873632866",
                "miles_per_hour": "13728.4066730377"
            },
            "miss_distance": {
                "astronomical": "0.0406316253",
                "lunar": "15.8057022417",
                "kilometers": "6078404.599518111",
                "miles": "3776945.4788514918"
            },
            "orbiting_body": "Earth"
        }
    ],
    "orbital_data": {
        "orbit_id": "6",
        "orbit_determination_date": "2017-04-06 09:12:25",
        "first_observation_date": "2004-08-23",
        "last_observation_date": "2004-08-25",
        "data_arc_in_days": 2,
        "observations_used": 18,
        "orbit_uncertainty": "8",
        "minimum_orbit_intersection": ".0405442",
        "jupiter_tisserand_invariant": "3.661",
        "epoch_osculation": "2453242.5",
        "eccentricity": ".4811277233015465",
        "semi_major_axis": "2.025792863062017",
        "inclination": "3.021437345144949",
        "ascending_node_longitude": "147.5960054570111",
        "orbital_period": "1053.151818552322",
        "perihelion_distance": "1.051127754976467",
        "perihelion_argument": "185.7769596905404",
        "aphelion_distance": "3.000457971147566",
        "perihelion_time": "2453243.197507968804",
        "mean_anomaly": "359.7615701133056",
        "mean_motion": ".3418310576483278",
        "equinox": "J2000",
        "orbit_class": {
            "orbit_class_type": "AMO",
            "orbit_class_description": "Near-Earth asteroid orbits similar to that of 1221 Amor",
            "orbit_class_range": "1.017 AU < q (perihelion) < 1.3 AU"
        }
    },
    "is_sentry_object": false
}